[
  {
    "OBJECT_NAME": "YAOGAN-27",
    "OBJECT_ID": "2015-040A",
    "EPOCH": "2025-05-06T05:42:34.591968",
    "MEAN_MOTION": 13.16047816,
    "ECCENTRICITY": 0.0009027,
    "INCLINATION": 100.087,
    "RA_OF_ASC_NODE": 125.9435,
    "ARG_OF_PERICENTER": 75.3483,
    "MEAN_ANOMALY": 284.8631,
    "EPHEMERIS_TYPE": 0,
    "CLASSIFICATION_TYPE": "U",
    "NORAD_CAT_ID": 40878,
    "ELEMENT_SET_NO": 999,
    "REV_AT_EPOCH": 46564,
    "BSTAR": 0.00010778,
    "MEAN_MOTION_DOT": -1e-08,
    "MEAN_MOTION_DDOT": 0
  },
  {
    "OBJECT_NAME": "GAOFEN-9 01",
    "OBJECT_ID": "2015-047A",
    "EPOCH": "2025-05-06T03:48:50.153184",
    "MEAN_MOTION": 14.81781008,
    "ECCENTRICITY": 0.0028766,
    "INCLINATION": 97.6804,
    "RA_OF_ASC_NODE": 174.3064,
    "ARG_OF_PERICENTER": 36.757,
    "MEAN_ANOMALY": 323.5609,
    "EPHEMERIS_TYPE": 0,
    "CLASSIFICATION_TYPE": "U",
    "NORAD_CAT_ID": 40894,
    "ELEMENT_SET_NO": 999,
    "REV_AT_EPOCH": 51989,
    "BSTAR": 0.00022563,
    "MEAN_MOTION_DOT": 1.742e-05,
    "MEAN_MOTION_DDOT": 0
  },
  {
    "OBJECT_NAME": "YAOGAN-28",
    "OBJECT_ID": "2015-064A",
    "EPOCH": "2025-05-06T04:11:32.162784",
    "MEAN_MOTION": 15.23473296,
    "ECCENTRICITY": 0.0014855,
    "INCLINATION": 97.2524,
    "RA_OF_ASC_NODE": 270.8427,
    "ARG_OF_PERICENTER": 172.2716,
    "MEAN_ANOMALY": 187.8753,
    "EPHEMERIS_TYPE": 0,
    "CLASSIFICATION_TYPE": "U",
    "NORAD_CAT_ID": 41026,
    "ELEMENT_SET_NO": 999,
    "REV_AT_EPOCH": 52866,
    "BSTAR": 0.00045682,
    "MEAN_MOTION_DOT": 0.00010864,
    "MEAN_MOTION_DDOT": 0
  },
  {
    "OBJECT_NAME": "YAOGAN-29",
    "OBJECT_ID": "2015-069A",
    "EPOCH": "2025-05-06T03:28:54.759072",
    "MEAN_MOTION": 14.82597778,
    "ECCENTRICITY": 1.33e-05,
    "INCLINATION": 98.0369,
    "RA_OF_ASC_NODE": 148.3625,
    "ARG_OF_PERICENTER": 174.764,
    "MEAN_ANOMALY": 185.3575,
    "EPHEMERIS_TYPE": 0,
    "CLASSIFICATION_TYPE": "U",
    "NORAD_CAT_ID": 41038,
    "ELEMENT_SET_NO": 999,
    "REV_AT_EPOCH": 51030,
    "BSTAR": 9.3385e-05,
    "MEAN_MOTION_DOT": 6.97e-06,
    "MEAN_MOTION_DDOT": 0
  },
  {
    "OBJECT_NAME": "KENT RIDGE 1",
    "OBJECT_ID": "2015-077B",
    "EPOCH": "2025-05-06T02:28:45.126912",
    "MEAN_MOTION": 15.1973525,
    "ECCENTRICITY": 0.0009178,
    "INCLINATION": 14.9811,
    "RA_OF_ASC_NODE": 45.4878,
    "ARG_OF_PERICENTER": 270.0946,
    "MEAN_ANOMALY": 89.8324,
    "EPHEMERIS_TYPE": 0,
    "CLASSIFICATION_TYPE": "U",
    "NORAD_CAT_ID": 41167,
    "ELEMENT_SET_NO": 999,
    "REV_AT_EPOCH": 51914,
    "BSTAR": 0.00020606,
    "MEAN_MOTION_DOT": 5.282e-05,
    "MEAN_MOTION_DDOT": 0
  },
  {
    "OBJECT_NAME": "TELEOS-1",
    "OBJECT_ID": "2015-077D",
    "EPOCH": "2025-05-05T13:31:44.067936",
    "MEAN_MOTION": 15.77765349,
    "ECCENTRICITY": 7.7e-05,
    "INCLINATION": 14.9755,
    "RA_OF_ASC_NODE": 206.6807,
    "ARG_OF_PERICENTER": 205.8321,
    "MEAN_ANOMALY": 154.197,
    "EPHEMERIS_TYPE": 0,
    "CLASSIFICATION_TYPE": "U",
    "NORAD_CAT_ID": 41169,
    "ELEMENT_SET_NO": 999,
    "REV_AT_EPOCH": 52085,
    "BSTAR": 0.0010916,
    "MEAN_MOTION_DOT": 0.00198865,
    "MEAN_MOTION_DDOT": 0
  },
  {
    "OBJECT_NAME": "GAOFEN-4",
    "OBJECT_ID": "2015-083A",
    "EPOCH": "2025-05-05T21:42:20.726784",
    "MEAN_MOTION": 1.00270589,
    "ECCENTRICITY": 7.3e-05,
    "INCLINATION": 0.0716,
    "RA_OF_ASC_NODE": 62.9224,
    "ARG_OF_PERICENTER": 303.5415,
    "MEAN_ANOMALY": 288.8754,
    "EPHEMERIS_TYPE": 0,
    "CLASSIFICATION_TYPE": "U",
    "NORAD_CAT_ID": 41194,
    "ELEMENT_SET_NO": 999,
    "REV_AT_EPOCH": 3444,
    "BSTAR": 0,
    "MEAN_MOTION_DOT": -3.42e-06,
    "MEAN_MOTION_DDOT": 0
  },
  {
    "OBJECT_NAME": "JASON-3",
    "OBJECT_ID": "2016-002A",
    "EPOCH": "2025-05-05T22:05:13.805088",
    "MEAN_MOTION": 12.8093151,
    "ECCENTRICITY": 0.0007778,
    "INCLINATION": 66.0415,
    "RA_OF_ASC_NODE": 261.2425,
    "ARG_OF_PERICENTER": 271.067,
    "MEAN_ANOMALY": 88.9454,
    "EPHEMERIS_TYPE": 0,
    "CLASSIFICATION_TYPE": "U",
    "NORAD_CAT_ID": 41240,
    "ELEMENT_SET_NO": 999,
    "REV_AT_EPOCH": 43483,
    "BSTAR": 0.00016296,
    "MEAN_MOTION_DOT": -2.3e-07,
    "MEAN_MOTION_DDOT": 0
  },
  {
    "OBJECT_NAME": "SENTINEL-3A",
    "OBJECT_ID": "2016-011A",
    "EPOCH": "2025-05-06T04:23:05.384544",
    "MEAN_MOTION": 14.26736219,
    "ECCENTRICITY": 9.72e-05,
    "INCLINATION": 98.6269,
    "RA_OF_ASC_NODE": 194.3692,
    "ARG_OF_PERICENTER": 103.8865,
    "MEAN_ANOMALY": 256.2423,
    "EPHEMERIS_TYPE": 0,
    "CLASSIFICATION_TYPE": "U",
    "NORAD_CAT_ID": 41335,
    "ELEMENT_SET_NO": 999,
    "REV_AT_EPOCH": 48002,
    "BSTAR": 0.00010244,
    "MEAN_MOTION_DOT": 2.04e-06,
    "MEAN_MOTION_DDOT": 0
  },
  {
    "OBJECT_NAME": "ZIYUAN 3-2 (ZY 3-2)",
    "OBJECT_ID": "2016-033A",
    "EPOCH": "2025-05-06T04:17:20.562144",
    "MEAN_MOTION": 15.21372244,
    "ECCENTRICITY": 0.0006535,
    "INCLINATION": 97.4196,
    "RA_OF_ASC_NODE": 203.7181,
    "ARG_OF_PERICENTER": 276.0852,
    "MEAN_ANOMALY": 83.9639,
    "EPHEMERIS_TYPE": 0,
    "CLASSIFICATION_TYPE": "U",
    "NORAD_CAT_ID": 41556,
    "ELEMENT_SET_NO": 999,
    "REV_AT_EPOCH": 49610,
    "BSTAR": 0.00039472,
    "MEAN_MOTION_DOT": 8.787e-05,
    "MEAN_MOTION_DDOT": 0
  },
  {
    "OBJECT_NAME": "CARTOSAT-2C",
    "OBJECT_ID": "2016-040A",
    "EPOCH": "2025-05-06T03:40:28.559712",
    "MEAN_MOTION": 15.19150582,
    "ECCENTRICITY": 0.0012921,
    "INCLINATION": 97.425,
    "RA_OF_ASC_NODE": 186.9023,
    "ARG_OF_PERICENTER": 110.2123,
    "MEAN_ANOMALY": 250.0502,
    "EPHEMERIS_TYPE": 0,
    "CLASSIFICATION_TYPE": "U",
    "NORAD_CAT_ID": 41599,
    "ELEMENT_SET_NO": 999,
    "REV_AT_EPOCH": 49191,
    "BSTAR": 0.00031147,
    "MEAN_MOTION_DOT": 6.493e-05,
    "MEAN_MOTION_DDOT": 0
  },
  {
    "OBJECT_NAME": "SKYSAT-C1",
    "OBJECT_ID": "2016-040C",
    "EPOCH": "2025-05-06T02:41:45.632544",
    "MEAN_MOTION": 15.29301768,
    "ECCENTRICITY": 0.0002388,
    "INCLINATION": 97.0094,
    "RA_OF_ASC_NODE": 175.7642,
    "ARG_OF_PERICENTER": 147.831,
    "MEAN_ANOMALY": 212.3077,
    "EPHEMERIS_TYPE": 0,
    "CLASSIFICATION_TYPE": "U",
    "NORAD_CAT_ID": 41601,
    "ELEMENT_SET_NO": 999,
    "REV_AT_EPOCH": 49553,
    "BSTAR": 0.00034562,
    "MEAN_MOTION_DOT": 9.758e-05,
    "MEAN_MOTION_DDOT": 0
  },
  {
    "OBJECT_NAME": "LAPAN-A3",
    "OBJECT_ID": "2016-040E",
    "EPOCH": "2025-05-06T03:48:36.801792",
    "MEAN_MOTION": 15.29614331,
    "ECCENTRICITY": 0.0012182,
    "INCLINATION": 97.1381,
    "RA_OF_ASC_NODE": 132.1225,
    "ARG_OF_PERICENTER": 41.0127,
    "MEAN_ANOMALY": 319.2028,
    "EPHEMERIS_TYPE": 0,
    "CLASSIFICATION_TYPE": "U",
    "NORAD_CAT_ID": 41603,
    "ELEMENT_SET_NO": 999,
    "REV_AT_EPOCH": 49252,
    "BSTAR": 0.00017499,
    "MEAN_MOTION_DOT": 4.959e-05,
    "MEAN_MOTION_DDOT": 0
  },
  {
    "OBJECT_NAME": "BIROS",
    "OBJECT_ID": "2016-040F",
    "EPOCH": "2025-05-05T19:06:29.253888",
    "MEAN_MOTION": 15.60039524,
    "ECCENTRICITY": 0.0003165,
    "INCLINATION": 97.0897,
    "RA_OF_ASC_NODE": 154.6921,
    "ARG_OF_PERICENTER": 314.5505,
    "MEAN_ANOMALY": 45.5494,
    "EPHEMERIS_TYPE": 0,
    "CLASSIFICATION_TYPE": "U",
    "NORAD_CAT_ID": 41604,
    "ELEMENT_SET_NO": 999,
    "REV_AT_EPOCH": 49407,
    "BSTAR": 0.00046506,
    "MEAN_MOTION_DOT": 0.00037632,
    "MEAN_MOTION_DDOT": 0
  }
]