YAOGAN-27               
1 40878U 15040A   25126.23790037 -.00000001  00000+0  10778-3 0  9991
2 40878 100.0870 125.9435 0009027  75.3483 284.8631 13.16047816465646
GAOFEN-9 01             
1 40894U 15047A   25126.15891381  .00001742  00000+0  22563-3 0  9998
2 40894  97.6804 174.3064 0028766  36.7570 323.5609 14.81781008519891
YAOGAN-28               
1 41026U 15064A   25126.17467781  .00010864  00000+0  45682-3 0  9992
2 41026  97.2524 270.8427 0014855 172.2716 187.8753 15.23473296528661
YAOGAN-29               
1 41038U 15069A   25126.14507823  .00000697  00000+0  93385-4 0  9996
2 41038  98.0369 148.3625 0000133 174.7640 185.3575 14.82597778510309
KENT RIDGE 1            
1 41167U 15077B   25126.10330008  .00005282  00000+0  20606-3 0  9993
2 41167  14.9811  45.4878 0009178 270.0946  89.8324 15.19735250519146
TELEOS-1                
1 41169U 15077D   25125.56370449  .00198865  00000+0  10916-2 0  9999
2 41169  14.9755 206.6807 0000770 205.8321 154.1970 15.77765349520859
GAOFEN-4                
1 41194U 15083A   25125.90440656 -.00000342  00000+0  00000+0 0  9993
2 41194   0.0716  62.9224 0000730 303.5415 288.8754  1.00270589 34440
JASON-3                 
1 41240U 16002A   25125.92029867 -.00000023  00000+0  16296-3 0  9990
2 41240  66.0415 261.2425 0007778 271.0670  88.9454 12.80931510434839
SENTINEL-3A             
1 41335U 16011A   25126.18270121  .00000204  00000+0  10244-3 0  9992
2 41335  98.6269 194.3692 0000972 103.8865 256.2423 14.26736219480020
ZIYUAN 3-2 (ZY 3-2)     
1 41556U 16033A   25126.17871021  .00008787  00000+0  39472-3 0  9994
2 41556  97.4196 203.7181 0006535 276.0852  83.9639 15.21372244496109
CARTOSAT-2C             
1 41599U 16040A   25126.15310833  .00006493  00000+0  31147-3 0  9999
2 41599  97.4250 186.9023 0012921 110.2123 250.0502 15.19150582491916
SKYSAT-C1               
1 41601U 16040C   25126.11233371  .00009758  00000+0  34562-3 0  9991
2 41601  97.0094 175.7642 0002388 147.8310 212.3077 15.29301768495530
LAPAN-A3                
1 41603U 16040E   25126.15875928  .00004959  00000+0  17499-3 0  9995
2 41603  97.1381 132.1225 0012182  41.0127 319.2028 15.29614331492522
BIROS                   
1 41604U 16040F   25125.79617192  .00037632  00000+0  46506-3 0  9997
2 41604  97.0897 154.6921 0003165 314.5505  45.5494 15.60039524494073
